{"type": "FeatureCollection", "features": [ {"type": "Feature", "properties": {"norad_id": 58662, "name": "TIANMU-1 21", "group": "weather", "lat": -74.64935333322767, "lon": -109.81836544281468, "alt_km": 474.7265680592909, "timestamp": "2025-12-11T05:00:25.955123+00:00", "meta": {"OBJECT_NAME": "TIANMU-1 21", "OBJECT_ID": "2023-208C", "EPOCH": "2025-12-10T23:11:08.786688", "MEAN_MOTION": 15.31487409, "ECCENTRICITY": 0.00058765, "INCLINATION": 97.4372, "RA_OF_ASC_NODE": 98.3529, "ARG_OF_PERICENTER": 267.6317, "MEAN_ANOMALY": 92.4252, "EPHEMERIS_TYPE": 0, "CLASSIFICATION_TYPE": "U", "NORAD_CAT_ID": 58662, "ELEMENT_SET_NO": 999, "REV_AT_EPOCH": 10872, "BSTAR": 0.00051414348, "MEAN_MOTION_DOT": 0.00015578, "MEAN_MOTION_DDOT": 0}, "tle": {"line1": "1 58662U 23208C   25344.96607392  .00015578  00000+0  51414-3 0  9995", "line2": "2 58662  97.4372  98.3529 0005876 267.6317  92.4252 15.31487409108729"}}, "geometry": {"type": "Point", "coordinates": [-109.81836544281468, -74.64935333322767]}}, {"type": "Feature", "properties": {"norad_id": 58663, "name": "TIANMU-1 22", "group": "weather", "lat": -20.37829038515915, "lon": -86.47345300950795, "alt_km": 488.6015078546716, "timestamp": "2025-12-11T05:00:25.955136+00:00", "meta": {"OBJECT_NAME": "TIANMU-1 22", "OBJECT_ID": "2023-208D", "EPOCH": "2025-12-10T21:50:36.873600", "MEAN_MOTION": 15.27553057, "ECCENTRICITY": 0.00027196, "INCLINATION": 97.438, "RA_OF_ASC_NODE": 96.0105, "ARG_OF_PERICENTER": 296.9865, "MEAN_ANOMALY": 63.1096, "EPHEMERIS_TYPE": 0, "CLASSIFICATION_TYPE": "U", "NORAD_CAT_ID": 58663, "ELEMENT_SET_NO": 999, "REV_AT_EPOCH": 10855, "BSTAR": 0.00047262045, "MEAN_MOTION_DOT": 0.00012672, "MEAN_MOTION_DDOT": 0}, "tle": {"line1": "1 58663U 23208D   25344.91014900  .00012672  00000+0  47262-3 0  9996", "line2": "2 58663  97.4380  96.0105 0002719 296.9865  63.1096 15.27553057108550"}}, "geometry": {"type": "Point", "coordinates": [-86.47345300950795, -20.37829038515915]}}, {"type": "Feature", "properties": {"norad_id": 58700, "name": "TIANMU-1 15", "group": "weather", "lat": -14.001229671232991, "lon": 168.55723297701746, "alt_km": 493.83498497860364, "timestamp": "2025-12-11T05:00:25.955147+00:00", "meta": {"OBJECT_NAME": "TIANMU-1 15", "OBJECT_ID": "2024-004A", "EPOCH": "2025-12-10T22:46:06.160224", "MEAN_MOTION": 15.24640913, "ECCENTRICITY": 0.00052516, "INCLINATION": 97.4631, "RA_OF_ASC_NODE": 166.4251, "ARG_OF_PERICENTER": 306.0762, "MEAN_ANOMALY": 53.9989, "EPHEMERIS_TYPE": 0, "CLASSIFICATION_TYPE": "U", "NORAD_CAT_ID": 58700, "ELEMENT_SET_NO": 999, "REV_AT_EPOCH": 10707, "BSTAR": 0.00041581562, "MEAN_MOTION_DOT": 0.00010202, "MEAN_MOTION_DDOT": 0}, "tle": {"line1": "1 58700U 24004A   25344.94868241  .00010202  00000+0  41582-3 0  9997", "line2": "2 58700  97.4631 166.4251 0005251 306.0762  53.9989 15.24640913107077"}}, "geometry": {"type": "Point", "coordinates": [168.55723297701746, -14.001229671232991]}}, {"type": "Feature", "properties": {"norad_id": 58701, "name": "TIANMU-1 16", "group": "weather", "lat": 67.90327590858398, "lon": 147.25250525291392, "alt_km": 487.85961156122994, "timestamp": "2025-12-11T05:00:25.955157+00:00", "meta": {"OBJECT_NAME": "TIANMU-1 16", "OBJECT_ID": "2024-004B", "EPOCH": "2025-12-10T22:24:12.186432", "MEAN_MOTION": 15.24392406, "ECCENTRICITY": 0.00045825, "INCLINATION": 97.4571, "RA_OF_ASC_NODE": 165.8004, "ARG_OF_PERICENTER": 304.1427, "MEAN_ANOMALY": 55.9376, "EPHEMERIS_TYPE": 0, "CLASSIFICATION_TYPE": "U", "NORAD_CAT_ID": 58701, "ELEMENT_SET_NO": 999, "REV_AT_EPOCH": 10707, "BSTAR": 0.00043821641, "MEAN_MOTION_DOT": 0.00010675, "MEAN_MOTION_DDOT": 0}, "tle": {"line1": "1 58701U 24004B   25344.93347438  .00010675  00000+0  43822-3 0  9990", "line2": "2 58701  97.4571 165.8004 0004582 304.1427  55.9376 15.24392406107076"}}, "geometry": {"type": "Point", "coordinates": [147.25250525291392, 67.90327590858398]}}, {"type": "Feature", "properties": {"norad_id": 58702, "name": "TIANMU-1 17", "group": "weather", "lat": 26.28172927913345, "lon": -9.806131124103075, "alt_km": 493.93883089174415, "timestamp": "2025-12-11T05:00:25.955167+00:00", "meta": {"OBJECT_NAME": "TIANMU-1 17", "OBJECT_ID": "2024-004C", "EPOCH": "2025-12-10T23:36:37.080864", "MEAN_MOTION": 15.24438842, "ECCENTRICITY": 0.00037749, "INCLINATION": 97.4605, "RA_OF_ASC_NODE": 166.2596, "ARG_OF_PERICENTER": 307.9556, "MEAN_ANOMALY": 52.134, "EPHEMERIS_TYPE": 0, "CLASSIFICATION_TYPE": "U", "NORAD_CAT_ID": 58702, "ELEMENT_SET_NO": 999, "REV_AT_EPOCH": 10707, "BSTAR": 0.00043781681, "MEAN_MOTION_DOT": 0.00010679, "MEAN_MOTION_DDOT": 0}, "tle": {"line1": "1 58702U 24004C   25344.98376251  .00010679  00000+0  43782-3 0  9990", "line2": "2 58702  97.4605 166.2596 0003774 307.9556  52.1340 15.24438842107077"}}, "geometry": {"type": "Point", "coordinates": [-9.806131124103075, 26.28172927913345]}}, {"type": "Feature", "properties": {"norad_id": 58703, "name": "TIANMU-1 18", "group": "weather", "lat": -63.981120779344245, "lon": -28.897381711375655, "alt_km": 498.76024959721326, "timestamp": "2025-12-11T05:00:25.955177+00:00", "meta": {"OBJECT_NAME": "TIANMU-1 18", "OBJECT_ID": "2024-004D", "EPOCH": "2025-12-10T23:12:34.168896", "MEAN_MOTION": 15.24426696, "ECCENTRICITY": 0.0003116, "INCLINATION": 97.4622, "RA_OF_ASC_NODE": 166.438, "ARG_OF_PERICENTER": 308.9141, "MEAN_ANOMALY": 51.1818, "EPHEMERIS_TYPE": 0, "CLASSIFICATION_TYPE": "U", "NORAD_CAT_ID": 58703, "ELEMENT_SET_NO": 999, "REV_AT_EPOCH": 10707, "BSTAR": 0.00040309893, "MEAN_MOTION_DOT": 9.822e-05, "MEAN_MOTION_DDOT": 0}, "tle": {"line1": "1 58703U 24004D   25344.96706214  .00009822  00000+0  40310-3 0  9997", "line2": "2 58703  97.4622 166.4380 0003116 308.9141  51.1818 15.24426696107074"}}, "geometry": {"type": "Point", "coordinates": [-28.897381711375655, -63.981120779344245]}}, {"type": "Feature", "properties": {"norad_id": 58990, "name": "INSAT-3DS", "group": "weather", "lat": 0.0016337148785846892, "lon": -122.65125539218077, "alt_km": 35779.539704513154, "timestamp": "2025-12-11T05:00:25.955189+00:00", "meta": {"OBJECT_NAME": "INSAT-3DS", "OBJECT_ID": "2024-033A", "EPOCH": "2025-12-10T20:46:49.479744", "MEAN_MOTION": 1.002745, "ECCENTRICITY": 0.00015251, "INCLINATION": 0.0359, "RA_OF_ASC_NODE": 129.2475, "ARG_OF_PERICENTER": 134.2355, "MEAN_ANOMALY": 210.134, "EPHEMERIS_TYPE": 0, "CLASSIFICATION_TYPE": "U", "NORAD_CAT_ID": 58990, "ELEMENT_SET_NO": 999, "REV_AT_EPOCH": 4518, "BSTAR": 0, "MEAN_MOTION_DOT": -1.51e-06, "MEAN_MOTION_DDOT": 0}, "tle": {"line1": "1 58990U 24033A   25344.86585046 -.00000151  00000+0  00000+0 0  9999", "line2": "2 58990   0.0359 129.2475 0001525 134.2355 210.1340  1.00274500 45184"}}, "geometry": {"type": "Point", "coordinates": [-122.65125539218077, 0.0016337148785846892]}}, {"type": "Feature", "properties": {"norad_id": 59051, "name": "METEOR-M2 4", "group": "weather", "lat": -77.6639540397956, "lon": 77.85690789895406, "alt_km": 825.5975755368427, "timestamp": "2025-12-11T05:00:25.955200+00:00", "meta": {"OBJECT_NAME": "METEOR-M2 4", "OBJECT_ID": "2024-039A", "EPOCH": "2025-12-10T22:43:04.266624", "MEAN_MOTION": 14.22400886, "ECCENTRICITY": 0.00071327, "INCLINATION": 98.6764, "RA_OF_ASC_NODE": 301.8836, "ARG_OF_PERICENTER": 3.6548, "MEAN_ANOMALY": 356.4681, "EPHEMERIS_TYPE": 0, "CLASSIFICATION_TYPE": "U", "NORAD_CAT_ID": 59051, "ELEMENT_SET_NO": 999, "REV_AT_EPOCH": 9250, "BSTAR": 6.1688795e-05, "MEAN_MOTION_DOT": 9.4e-07, "MEAN_MOTION_DDOT": 0}, "tle": {"line1": "1 59051U 24039A   25344.94657716  .00000094  00000+0  61689-4 0  9997", "line2": "2 59051  98.6764 301.8836 0007132   3.6548 356.4681 14.22400886 92504"}}, "geometry": {"type": "Point", "coordinates": [77.85690789895406, -77.6639540397956]}}, {"type": "Feature", "properties": {"norad_id": 60133, "name": "GOES 19", "group": "weather", "lat": -0.0003513944245133971, "lon": 80.10585775591399, "alt_km": 35790.02730280297, "timestamp": "2025-12-11T05:00:25.955211+00:00", "meta": {"OBJECT_NAME": "GOES 19", "OBJECT_ID": "2024-119A", "EPOCH": "2025-12-10T20:02:01.271616", "MEAN_MOTION": 1.00271191, "ECCENTRICITY": 0.00013339, "INCLINATION": 0.0087, "RA_OF_ASC_NODE": 100.8993, "ARG_OF_PERICENTER": 207.6379, "MEAN_ANOMALY": 356.5905, "EPHEMERIS_TYPE": 0, "CLASSIFICATION_TYPE": "U", "NORAD_CAT_ID": 60133, "ELEMENT_SET_NO": 999, "REV_AT_EPOCH": 507, "BSTAR": 0, "MEAN_MOTION_DOT": -2.43e-06, "MEAN_MOTION_DDOT": 0}, "tle": {"line1": "1 60133U 24119A   25344.83473694 -.00000243  00000+0  00000+0 0  9990", "line2": "2 60133   0.0087 100.8993 0001333 207.6379 356.5905  1.00271191  5071"}}, "geometry": {"type": "Point", "coordinates": [80.10585775591399, -0.0003513944245133971]}}, {"type": "Feature", "properties": {"norad_id": 65815, "name": "FENGYUN 3H", "group": "weather", "lat": 25.662544292598035, "lon": 109.03056314359314, "alt_km": 824.6062163532915, "timestamp": "2025-12-11T05:00:25.955222+00:00", "meta": {"OBJECT_NAME": "FENGYUN 3H", "OBJECT_ID": "2025-219A", "EPOCH": "2025-12-10T21:31:11.673696", "MEAN_MOTION": 14.1990391, "ECCENTRICITY": 6.038e-05, "INCLINATION": 98.6582, "RA_OF_ASC_NODE": 284.5271, "ARG_OF_PERICENTER": 88.5652, "MEAN_ANOMALY": 271.5594, "EPHEMERIS_TYPE": 0, "CLASSIFICATION_TYPE": "U", "NORAD_CAT_ID": 65815, "ELEMENT_SET_NO": 999, "REV_AT_EPOCH": 1066, "BSTAR": 0.00010561816, "MEAN_MOTION_DOT": 1.81e-06, "MEAN_MOTION_DDOT": 0}, "tle": {"line1": "1 65815U 25219A   25344.89666289  .00000181  00000+0  10562-3 0  9992", "line2": "2 65815  98.6582 284.5271 0000603  88.5652 271.5594 14.19903910 10660"}}, "geometry": {"type": "Point", "coordinates": [109.03056314359314, 25.662544292598035]}}]}